[
    {
        "CCSDS_OMM_VERS": "3.0",
        "COMMENT": "GENERATED VIA SPACE-TRACK.ORG API",
        "CREATION_DATE": "2025-04-14T03:05:54",
        "ORIGINATOR": "18 SPCS",
        "OBJECT_NAME": "BEIDOU 3M15",
        "OBJECT_ID": "2018-078A",
        "CENTER_NAME": "EARTH",
        "REF_FRAME": "TEME",
        "TIME_SYSTEM": "UTC",
        "MEAN_ELEMENT_THEORY": "SGP4",
        "EPOCH": "2025-04-12T22:10:47.776512",
        "MEAN_MOTION": "1.86232453",
        "ECCENTRICITY": "0.00081070",
        "INCLINATION": "54.4741",
        "RA_OF_ASC_NODE": "315.0261",
        "ARG_OF_PERICENTER": "27.5251",
        "MEAN_ANOMALY": "332.5490",
        "EPHEMERIS_TYPE": "0",
        "CLASSIFICATION_TYPE": "U",
        "NORAD_CAT_ID": "43647",
        "ELEMENT_SET_NO": "999",
        "REV_AT_EPOCH": "4414",
        "BSTAR": "0.00000000000000",
        "MEAN_MOTION_DOT": "-0.00000068",
        "MEAN_MOTION_DDOT": "0.0000000000000",
        "SEMIMAJOR_AXIS": "27906.043",
        "PERIOD": "773.227",
        "APOAPSIS": "21550.532",
        "PERIAPSIS": "21505.285",
        "OBJECT_TYPE": "PAYLOAD",
        "RCS_SIZE": "LARGE",
        "COUNTRY_CODE": "PRC",
        "LAUNCH_DATE": "2018-10-15",
        "SITE": "XSC",
        "DECAY_DATE": null,
        "FILE": "4701263",
        "GP_ID": "285539004",
        "TLE_LINE0": "0 BEIDOU 3M15",
        "TLE_LINE1": "1 43647U 18078A   25102.92416408 -.00000068  00000-0  00000-0 0  9997",
        "TLE_LINE2": "2 43647  54.4741 315.0261 0008107  27.5251 332.5490  1.86232453 44140"
    }
]